{
  "type": "FeatureCollection",
  "features": [
    {
      "type": "Feature",
      "properties": {
        "norad_id": 41556,
        "name": "ZIYUAN 3-2 (ZY 3-2)",
        "group": "resource",
        "lat": -19.64490415538465,
        "lon": 61.280642678840685,
        "alt_km": 505.528550028067,
        "timestamp": "2025-12-10T09:57:44.361689+00:00",
        "meta_object_name": "ZIYUAN 3-2 (ZY 3-2)",
        "meta_object_id": "2016-033A",
        "meta_epoch": "2025-12-10T05:18:49.899168",
        "meta_mean_motion": 15.21443138,
        "meta_eccentricity": 0.0012427,
        "meta_inclination": 97.4041,
        "meta_ra_of_asc_node": 58.4295,
        "meta_arg_of_pericenter": 258.9232,
        "meta_mean_anomaly": 101.0607,
        "meta_ephemeris_type": 0,
        "meta_classification_type": "U",
        "meta_norad_cat_id": 41556,
        "meta_element_set_no": 999,
        "meta_rev_at_epoch": 52925,
        "meta_bstar": 0.00049278,
        "meta_mean_motion_dot": 0.0001103,
        "meta_mean_motion_ddot": 0,
        "tle_line1": "1 41556U 16033A   25344.22141087  .00011030  00000+0  49278-3 0  9994",
        "tle_line2": "2 41556  97.4041  58.4295 0012427 258.9232 101.0607 15.21443138529258"
      },
      "geometry": {
        "type": "Point",
        "coordinates": [
          61.280642678840685,
          -19.64490415538465
        ]
      }
    },
    {
      "type": "Feature",
      "properties": {
        "norad_id": 41599,
        "name": "CARTOSAT-2C",
        "group": "resource",
        "lat": -56.96239841934691,
        "lon": 53.3389033720393,
        "alt_km": 519.9693952565267,
        "timestamp": "2025-12-10T09:57:44.361699+00:00",
        "meta_object_name": "CARTOSAT-2C",
        "meta_object_id": "2016-040A",
        "meta_epoch": "2025-12-10T03:53:35.503008",
        "meta_mean_motion": 15.19251394,
        "meta_eccentricity": 0.0010876,
        "meta_inclination": 97.4766,
        "meta_ra_of_asc_node": 41.4383,
        "meta_arg_of_pericenter": 72.6943,
        "meta_mean_anomaly": 287.548,
        "meta_ephemeris_type": 0,
        "meta_classification_type": "U",
        "meta_norad_cat_id": 41599,
        "meta_element_set_no": 999,
        "meta_rev_at_epoch": 52501,
        "meta_bstar": 0.00022305,
        "meta_mean_motion_dot": 4.639e-05,
        "meta_mean_motion_ddot": 0,
        "tle_line1": "1 41599U 16040A   25344.16221647  .00004639  00000+0  22305-3 0  9992",
        "tle_line2": "2 41599  97.4766  41.4383 0010876  72.6943 287.5480 15.19251394525012"
      },
      "geometry": {
        "type": "Point",
        "coordinates": [
          53.3389033720393,
          -56.96239841934691
        ]
      }
    },
    {
      "type": "Feature",
      "properties": {
        "norad_id": 41601,
        "name": "SKYSAT-C1",
        "group": "resource",
        "lat": -65.82132317072245,
        "lon": -174.28208656483213,
        "alt_km": 476.8796629634935,
        "timestamp": "2025-12-10T09:57:44.361709+00:00",
        "meta_object_name": "SKYSAT-C1",
        "meta_object_id": "2016-040C",
        "meta_epoch": "2025-12-10T01:03:12.196224",
        "meta_mean_motion": 15.32510525,
        "meta_eccentricity": 0.000268,
        "meta_inclination": 96.9824,
        "meta_ra_of_asc_node": 21.2092,
        "meta_arg_of_pericenter": 23.5908,
        "meta_mean_anomaly": 336.5457,
        "meta_ephemeris_type": 0,
        "meta_classification_type": "U",
        "meta_norad_cat_id": 41601,
        "meta_element_set_no": 999,
        "meta_rev_at_epoch": 52886,
        "meta_bstar": 0.00041563,
        "meta_mean_motion_dot": 0.00012984,
        "meta_mean_motion_ddot": 0,
        "tle_line1": "1 41601U 16040C   25344.04389116  .00012984  00000+0  41563-3 0  9998",
        "tle_line2": "2 41601  96.9824  21.2092 0002680  23.5908 336.5457 15.32510525528862"
      },
      "geometry": {
        "type": "Point",
        "coordinates": [
          -174.28208656483213,
          -65.82132317072245
        ]
      }
    },
    {
      "type": "Feature",
      "properties": {
        "norad_id": 41603,
        "name": "LAPAN-A3",
        "group": "resource",
        "lat": 38.64759953233144,
        "lon": -23.700026896082477,
        "alt_km": 464.66631684834374,
        "timestamp": "2025-12-10T09:57:44.361719+00:00",
        "meta_object_name": "LAPAN-A3",
        "meta_object_id": "2016-040E",
        "meta_epoch": "2025-12-10T05:05:18.838176",
        "meta_mean_motion": 15.31518342,
        "meta_eccentricity": 0.0009942,
        "meta_inclination": 97.1433,
        "meta_ra_of_asc_node": 341.8599,
        "meta_arg_of_pericenter": 343.669,
        "meta_mean_anomaly": 16.423,
        "meta_ephemeris_type": 0,
        "meta_classification_type": "U",
        "meta_norad_cat_id": 41603,
        "meta_element_set_no": 999,
        "meta_rev_at_epoch": 52587,
        "meta_bstar": 0.00018168,
        "meta_mean_motion_dot": 5.463e-05,
        "meta_mean_motion_ddot": 0,
        "tle_line1": "1 41603U 16040E   25344.21202359  .00005463  00000+0  18168-3 0  9991",
        "tle_line2": "2 41603  97.1433 341.8599 0009942 343.6690  16.4230 15.31518342525873"
      },
      "geometry": {
        "type": "Point",
        "coordinates": [
          -23.700026896082477,
          38.64759953233144
        ]
      }
    },
    {
      "type": "Feature",
      "properties": {
        "norad_id": 41604,
        "name": "BIROS",
        "group": "resource",
        "lat": 77.64463902052039,
        "lon": -129.72828165821807,
        "alt_km": 297.6013440853303,
        "timestamp": "2025-12-10T09:57:44.361730+00:00",
        "meta_object_name": "BIROS",
        "meta_object_id": "2016-040F",
        "meta_epoch": "2025-12-10T01:58:59.670048",
        "meta_mean_motion": 15.88522659,
        "meta_eccentricity": 0.0003168,
        "meta_inclination": 97.0703,
        "meta_ra_of_asc_node": 15.4098,
        "meta_arg_of_pericenter": 156.5515,
        "meta_mean_anomaly": 203.5903,
        "meta_ephemeris_type": 0,
        "meta_classification_type": "U",
        "meta_norad_cat_id": 41604,
        "meta_element_set_no": 999,
        "meta_rev_at_epoch": 52830,
        "meta_bstar": 0.00072042,
        "meta_mean_motion_dot": 0.00203476,
        "meta_mean_motion_ddot": 0,
        "tle_line1": "1 41604U 16040F   25344.08263507  .00203476  00000+0  72042-3 0  9994",
        "tle_line2": "2 41604  97.0703  15.4098 0003168 156.5515 203.5903 15.88522659528307"
      },
      "geometry": {
        "type": "Point",
        "coordinates": [
          -129.72828165821807,
          77.64463902052039
        ]
      }
    },
    {
      "type": "Feature",
      "properties": {
        "norad_id": 41727,
        "name": "GAOFEN-3",
        "group": "resource",
        "lat": -22.35530074344682,
        "lon": 166.5510120638921,
        "alt_km": 757.3538303924652,
        "timestamp": "2025-12-10T09:57:44.361740+00:00",
        "meta_object_name": "GAOFEN-3",
        "meta_object_id": "2016-049A",
        "meta_epoch": "2025-12-10T04:01:52.230432",
        "meta_mean_motion": 14.42212515,
        "meta_eccentricity": 0.0001499,
        "meta_inclination": 98.4038,
        "meta_ra_of_asc_node": 349.7932,
        "meta_arg_of_pericenter": 64.6229,
        "meta_mean_anomaly": 295.5115,
        "meta_ephemeris_type": 0,
        "meta_classification_type": "U",
        "meta_norad_cat_id": 41727,
        "meta_element_set_no": 999,
        "meta_rev_at_epoch": 49140,
        "meta_bstar": 5.4691e-05,
        "meta_mean_motion_dot": 1.37e-06,
        "meta_mean_motion_ddot": 0,
        "tle_line1": "1 41727U 16049A   25344.16796563  .00000137  00000+0  54691-4 0  9991",
        "tle_line2": "2 41727  98.4038 349.7932 0001499  64.6229 295.5115 14.42212515491407"
      },
      "geometry": {
        "type": "Point",
        "coordinates": [
          166.5510120638921,
          -22.35530074344682
        ]
      }
    },
    {
      "type": "Feature",
      "properties": {
        "norad_id": 41771,
        "name": "SKYSAT-C4",
        "group": "resource",
        "lat": 76.63506991774071,
        "lon": -139.45337978611593,
        "alt_km": 431.87390289667655,
        "timestamp": "2025-12-10T09:57:44.361750+00:00",
        "meta_object_name": "SKYSAT-C4",
        "meta_object_id": "2016-058B",
        "meta_epoch": "2025-12-10T01:44:15.225216",
        "meta_mean_motion": 15.42126604,
        "meta_eccentricity": 0.0001244,
        "meta_inclination": 96.9376,
        "meta_ra_of_asc_node": 9.3894,
        "meta_arg_of_pericenter": 134.424,
        "meta_mean_anomaly": 225.711,
        "meta_ephemeris_type": 0,
        "meta_classification_type": "U",
        "meta_norad_cat_id": 41771,
        "meta_element_set_no": 999,
        "meta_rev_at_epoch": 51626,
        "meta_bstar": 0.00046822,
        "meta_mean_motion_dot": 0.00019988,
        "meta_mean_motion_ddot": 0,
        "tle_line1": "1 41771U 16058B   25344.07239844  .00019988  00000+0  46822-3 0  9994",
        "tle_line2": "2 41771  96.9376   9.3894 0001244 134.4240 225.7110 15.42126604516263"
      },
      "geometry": {
        "type": "Point",
        "coordinates": [
          -139.45337978611593,
          76.63506991774071
        ]
      }
    }
  ]
}